GSAT0215 (GALILEO 19)   
1 43055U 17079A   26087.06727498 -.00000018  00000+0  00000+0 0  9995
2 43055  55.1004 223.7366 0000560 288.8027  71.1377  1.70474561 51602
GSAT0216 (GALILEO 20)   
1 43056U 17079B   26087.35847726 -.00000020  00000+0  00000+0 0  9998
2 43056  55.1004 223.7286 0001951 299.6924  60.2331  1.70474678 51625
GSAT0217 (GALILEO 21)   
1 43057U 17079C   26086.99266438 -.00000017  00000+0  00000+0 0  9999
2 43057  55.0995 223.7365 0001844 336.2846  23.6537  1.70474585 51600
GSAT0218 (GALILEO 22)   
1 43058U 17079D   26085.45298486  .00000000  00000+0  00000+0 0  9999
2 43058  55.0993 223.7765 0002274 289.2872  70.6427  1.70474511 51606
GSAT0221 (GALILEO 25)   
1 43564U 18060A   26086.52972301 -.00000097  00000+0  00000+0 0  9993
2 43564  57.1946 343.9877 0004798 314.1453  45.8491  1.70475505 47776
GSAT0222 (GALILEO 26)   
1 43565U 18060B   26086.74923849 -.00000097  00000+0  00000+0 0  9991
2 43565  57.1988 343.9851 0003423 288.4050  71.5917  1.70475080 47828
GSAT0219 (GALILEO 23)   
1 43566U 18060C   26085.21047518 -.00000094  00000+0  00000+0 0  9990
2 43566  57.1986 344.0284 0004705 320.4446  39.5555  1.70475357 47772
GSAT0220 (GALILEO 24)   
1 43567U 18060D   26086.01803140 -.00000096  00000+0  00000+0 0  9993
2 43567  57.1973 344.0063 0004469 319.2855  40.7149  1.70475173 47770
GSAT0223 (GALILEO 27)   
1 49809U 21116A   26085.57513177 -.00000095  00000+0  00000+0 0  9991
2 49809  57.1864 343.9082 0001802 284.7150 254.2688  1.70475251 26779
GSAT0224 (GALILEO 28)   
1 49810U 21116B   26083.04634432 -.00000085  00000+0  00000+0 0  9990
2 49810  57.1880 343.9758 0001287 309.9434 229.6785  1.70475197 26752
GSAT0225 (GALILEO 29)   
1 59598U 24079A   26087.07569868  .00000039  00000+0  00000+0 0  9990
2 59598  55.0678 103.3445 0002740 270.8462 214.7370  1.70474547 11938
GSAT0227 (GALILEO 30)   
1 59600U 24079C   26084.70822061  .00000032  00000+0  00000+0 0  9991
2 59600  55.0598 103.4096 0000616  12.6919 347.3562  1.70474585 11944
GSAT0226 (GALILEO 31)   
1 61183U 24167B   26086.54056287 -.00000012  00000+0  00000+0 0  9990
2 61183  55.2106 223.5582 0001564 156.5708 194.8874  1.70474116  9455
GSAT0234 (GALILEO 34)   
1 67162U 25302C   26086.69588354  .00000036  00000+0  00000+0 0  9991
2 67162  54.2830 104.4494 0003830 286.8102  76.5044  1.70474528  1794
